{"type": "FeatureCollection", "features": [ {"type": "Feature", "properties": {"norad_id": 33982, "name": "COSMOS 2251 DEB", "group": "cosmos-2251-debris", "lat": 44.42096932185438, "lon": -174.2672565220636, "alt_km": 664.5079069757012, "timestamp": "2025-12-01T03:58:49.144371+00:00", "meta": {"OBJECT_NAME": "COSMOS 2251 DEB", "OBJECT_ID": "1993-036FR", "EPOCH": "2025-11-30T14:56:08.579328", "MEAN_MOTION": 14.60144244, "ECCENTRICITY": 0.0074768, "INCLINATION": 74.0718, "RA_OF_ASC_NODE": 23.0196, "ARG_OF_PERICENTER": 71.0987, "MEAN_ANOMALY": 85.4788, "EPHEMERIS_TYPE": 0, "CLASSIFICATION_TYPE": "U", "NORAD_CAT_ID": 33982, "ELEMENT_SET_NO": 999, "REV_AT_EPOCH": 88982, "BSTAR": 0.0003283, "MEAN_MOTION_DOT": 1.613e-05, "MEAN_MOTION_DDOT": 0, "GROUP": "cosmos-2251-debris"}, "tle": {"line1": "1 33982U 93036FR  25334.62232152  .00001613  00000+0  32830-3 0  9995", "line2": "2 33982  74.0718  23.0196 0074768  71.0987  85.4788 14.60144244889824"}}, "geometry": {"type": "Point", "coordinates": [-174.2672565220636, 44.42096932185438]}}, {"type": "Feature", "properties": {"norad_id": 33983, "name": "COSMOS 2251 DEB", "group": "cosmos-2251-debris", "lat": 70.31459678808156, "lon": -64.2919855858256, "alt_km": 731.5990986918587, "timestamp": "2025-12-01T03:58:49.144382+00:00", "meta": {"OBJECT_NAME": "COSMOS 2251 DEB", "OBJECT_ID": "1993-036FS", "EPOCH": "2025-11-30T16:15:23.800320", "MEAN_MOTION": 14.50592162, "ECCENTRICITY": 0.0021438, "INCLINATION": 74.0492, "RA_OF_ASC_NODE": 169.6997, "ARG_OF_PERICENTER": 273.9261, "MEAN_ANOMALY": 157.8578, "EPHEMERIS_TYPE": 0, "CLASSIFICATION_TYPE": "U", "NORAD_CAT_ID": 33983, "ELEMENT_SET_NO": 999, "REV_AT_EPOCH": 88454, "BSTAR": 0.00045906, "MEAN_MOTION_DOT": 1.778e-05, "MEAN_MOTION_DDOT": 0, "GROUP": "cosmos-2251-debris"}, "tle": {"line1": "1 33983U 93036FS  25334.67735880  .00001778  00000+0  45906-3 0  9997", "line2": "2 33983  74.0492 169.6997 0021438 273.9261 157.8578 14.50592162884544"}}, "geometry": {"type": "Point", "coordinates": [-64.2919855858256, 70.31459678808156]}}, {"type": "Feature", "properties": {"norad_id": 33984, "name": "COSMOS 2251 DEB", "group": "cosmos-2251-debris", "lat": -72.8652194425717, "lon": -58.99509199284456, "alt_km": 673.3125814868645, "timestamp": "2025-12-01T03:58:49.144392+00:00", "meta": {"OBJECT_NAME": "COSMOS 2251 DEB", "OBJECT_ID": "1993-036FT", "EPOCH": "2025-11-30T20:57:46.226016", "MEAN_MOTION": 14.66196538, "ECCENTRICITY": 0.0023854, "INCLINATION": 74.0103, "RA_OF_ASC_NODE": 10.0129, "ARG_OF_PERICENTER": 210.8302, "MEAN_ANOMALY": 322.4339, "EPHEMERIS_TYPE": 0, "CLASSIFICATION_TYPE": "U", "NORAD_CAT_ID": 33984, "ELEMENT_SET_NO": 999, "REV_AT_EPOCH": 88892, "BSTAR": 0.00079402, "MEAN_MOTION_DOT": 4.36e-05, "MEAN_MOTION_DDOT": 0, "GROUP": "cosmos-2251-debris"}, "tle": {"line1": "1 33984U 93036FT  25334.87345169  .00004360  00000+0  79402-3 0  9995", "line2": "2 33984  74.0103  10.0129 0023854 210.8302 322.4339 14.66196538888925"}}, "geometry": {"type": "Point", "coordinates": [-58.99509199284456, -72.8652194425717]}}, {"type": "Feature", "properties": {"norad_id": 33986, "name": "COSMOS 2251 DEB", "group": "cosmos-2251-debris", "lat": 13.12220768617084, "lon": 140.34578058759837, "alt_km": 765.7410335908708, "timestamp": "2025-12-01T03:58:49.144402+00:00", "meta": {"OBJECT_NAME": "COSMOS 2251 DEB", "OBJECT_ID": "1993-036FV", "EPOCH": "2025-11-29T10:18:48.359232", "MEAN_MOTION": 14.43095762, "ECCENTRICITY": 0.00397624, "INCLINATION": 74.0368, "RA_OF_ASC_NODE": 327.3944, "ARG_OF_PERICENTER": 43.5494, "MEAN_ANOMALY": 106.5447, "EPHEMERIS_TYPE": 0, "CLASSIFICATION_TYPE": "U", "NORAD_CAT_ID": 33986, "ELEMENT_SET_NO": 999, "REV_AT_EPOCH": 87836, "BSTAR": 0.00068269921, "MEAN_MOTION_DOT": 2.287e-05, "MEAN_MOTION_DDOT": 0, "GROUP": "cosmos-2251-debris"}, "tle": {"line1": "1 33986U 93036FV  25333.42972638  .00002287  00000+0  68270-3 0  9991", "line2": "2 33986  74.0368 327.3944 0039762  43.5494 106.5447 14.43095762878367"}}, "geometry": {"type": "Point", "coordinates": [140.34578058759837, 13.12220768617084]}}, {"type": "Feature", "properties": {"norad_id": 33990, "name": "COSMOS 2251 DEB", "group": "cosmos-2251-debris", "lat": 40.81229002599213, "lon": 110.16058358980467, "alt_km": 1367.668476359965, "timestamp": "2025-12-01T03:58:49.144412+00:00", "meta": {"OBJECT_NAME": "COSMOS 2251 DEB", "OBJECT_ID": "1993-036FZ", "EPOCH": "2025-11-30T15:45:17.296416", "MEAN_MOTION": 13.49931431, "ECCENTRICITY": 0.0407587, "INCLINATION": 73.9275, "RA_OF_ASC_NODE": 305.3934, "ARG_OF_PERICENTER": 327.88, "MEAN_ANOMALY": 213.7283, "EPHEMERIS_TYPE": 0, "CLASSIFICATION_TYPE": "U", "NORAD_CAT_ID": 33990, "ELEMENT_SET_NO": 999, "REV_AT_EPOCH": 82566, "BSTAR": 0.001419, "MEAN_MOTION_DOT": 1.487e-05, "MEAN_MOTION_DDOT": 0, "GROUP": "cosmos-2251-debris"}, "tle": {"line1": "1 33990U 93036FZ  25334.65645019  .00001487  00000+0  14190-2 0  9994", "line2": "2 33990  73.9275 305.3934 0407587 327.8800 213.7283 13.49931431825666"}}, "geometry": {"type": "Point", "coordinates": [110.16058358980467, 40.81229002599213]}}, {"type": "Feature", "properties": {"norad_id": 33992, "name": "COSMOS 2251 DEB", "group": "cosmos-2251-debris", "lat": 33.79141168094881, "lon": 169.00684199253746, "alt_km": 637.4408868635865, "timestamp": "2025-12-01T03:58:49.144422+00:00", "meta": {"OBJECT_NAME": "COSMOS 2251 DEB", "OBJECT_ID": "1993-036GB", "EPOCH": "2025-11-30T13:17:23.438400", "MEAN_MOTION": 14.66066282, "ECCENTRICITY": 0.0051877, "INCLINATION": 74.0248, "RA_OF_ASC_NODE": 1.2392, "ARG_OF_PERICENTER": 122.9481, "MEAN_ANOMALY": 32.1313, "EPHEMERIS_TYPE": 0, "CLASSIFICATION_TYPE": "U", "NORAD_CAT_ID": 33992, "ELEMENT_SET_NO": 999, "REV_AT_EPOCH": 88946, "BSTAR": 0.00065944, "MEAN_MOTION_DOT": 3.662e-05, "MEAN_MOTION_DDOT": 0, "GROUP": "cosmos-2251-debris"}, "tle": {"line1": "1 33992U 93036GB  25334.55374350  .00003662  00000+0  65944-3 0  9993", "line2": "2 33992  74.0248   1.2392 0051877 122.9481  32.1313 14.66066282889464"}}, "geometry": {"type": "Point", "coordinates": [169.00684199253746, 33.79141168094881]}}, {"type": "Feature", "properties": {"norad_id": 33994, "name": "COSMOS 2251 DEB", "group": "cosmos-2251-debris", "lat": 14.277900606296825, "lon": -143.9977200546557, "alt_km": 740.3204683533377, "timestamp": "2025-12-01T03:58:49.144432+00:00", "meta": {"OBJECT_NAME": "COSMOS 2251 DEB", "OBJECT_ID": "1993-036GD", "EPOCH": "2025-11-30T18:11:47.903712", "MEAN_MOTION": 14.41202784, "ECCENTRICITY": 0.0023173, "INCLINATION": 74.0427, "RA_OF_ASC_NODE": 212.5807, "ARG_OF_PERICENTER": 349.244, "MEAN_ANOMALY": 71.4254, "EPHEMERIS_TYPE": 0, "CLASSIFICATION_TYPE": "U", "NORAD_CAT_ID": 33994, "ELEMENT_SET_NO": 999, "REV_AT_EPOCH": 88247, "BSTAR": 9.5197e-05, "MEAN_MOTION_DOT": 2.82e-06, "MEAN_MOTION_DDOT": 0, "GROUP": "cosmos-2251-debris"}, "tle": {"line1": "1 33994U 93036GD  25334.75819333  .00000282  00000+0  95197-4 0  9991", "line2": "2 33994  74.0427 212.5807 0023173 349.2440  71.4254 14.41202784882476"}}, "geometry": {"type": "Point", "coordinates": [-143.9977200546557, 14.277900606296825]}}, {"type": "Feature", "properties": {"norad_id": 33995, "name": "COSMOS 2251 DEB", "group": "cosmos-2251-debris", "lat": 0.6057568765605482, "lon": 140.69596585106336, "alt_km": 818.9868702822223, "timestamp": "2025-12-01T03:58:49.144442+00:00", "meta": {"OBJECT_NAME": "COSMOS 2251 DEB", "OBJECT_ID": "1993-036GE", "EPOCH": "2025-11-30T19:36:34.656192", "MEAN_MOTION": 14.34663557, "ECCENTRICITY": 0.0061069, "INCLINATION": 74.0594, "RA_OF_ASC_NODE": 141.1606, "ARG_OF_PERICENTER": 158.7851, "MEAN_ANOMALY": 201.5855, "EPHEMERIS_TYPE": 0, "CLASSIFICATION_TYPE": "U", "NORAD_CAT_ID": 33995, "ELEMENT_SET_NO": 999, "REV_AT_EPOCH": 87348, "BSTAR": 0.00099496, "MEAN_MOTION_DOT": 2.85e-05, "MEAN_MOTION_DDOT": 0, "GROUP": "cosmos-2251-debris"}, "tle": {"line1": "1 33995U 93036GE  25334.81706778  .00002850  00000+0  99496-3 0  9995", "line2": "2 33995  74.0594 141.1606 0061069 158.7851 201.5855 14.34663557873486"}}, "geometry": {"type": "Point", "coordinates": [140.69596585106336, 0.6057568765605482]}}, {"type": "Feature", "properties": {"norad_id": 33999, "name": "COSMOS 2251 DEB", "group": "cosmos-2251-debris", "lat": -54.06113502033377, "lon": -129.59841358198545, "alt_km": 653.7607829464505, "timestamp": "2025-12-01T03:58:49.144452+00:00", "meta": {"OBJECT_NAME": "COSMOS 2251 DEB", "OBJECT_ID": "1993-036GJ", "EPOCH": "2025-11-30T05:34:24.977856", "MEAN_MOTION": 14.82913919, "ECCENTRICITY": 0.00447768, "INCLINATION": 73.9187, "RA_OF_ASC_NODE": 255.7113, "ARG_OF_PERICENTER": 154.9459, "MEAN_ANOMALY": 205.3905, "EPHEMERIS_TYPE": 0, "CLASSIFICATION_TYPE": "U", "NORAD_CAT_ID": 33999, "ELEMENT_SET_NO": 999, "REV_AT_EPOCH": 89065, "BSTAR": 0.0015995497, "MEAN_MOTION_DOT": 0.00013193, "MEAN_MOTION_DDOT": 0, "GROUP": "cosmos-2251-debris"}, "tle": {"line1": "1 33999U 93036GJ  25334.23223354  .00013193  00000+0  15995-2 0  9992", "line2": "2 33999  73.9187 255.7113 0044776 154.9459 205.3905 14.82913919890658"}}, "geometry": {"type": "Point", "coordinates": [-129.59841358198545, -54.06113502033377]}}]}